NORAD_CAT_ID,OBJECT_NAME,OBJECT_TYPE,EPOCH,MEAN_MOTION,ECCENTRICITY,INCLINATION,RA_OF_ASC_NODE,ARG_OF_PERICENTER,MEAN_ANOMALY,BSTAR,MEAN_MOTION_DOT,MEAN_MOTION_DDOT,TLE_LINE0,TLE_LINE1,TLE_LINE2,SEMIMAJOR_AXIS,PERIOD,APOGEE,PERIGEE,DECAYED
53541.0,STARLINK-4485,PAYLOAD,2023-02-27 02:38:53,15.08858573,8.87e-05,53.2177,1.7538,93.1669,266.9424,0.00055541,8.567e-05,0.0,0 STARLINK-4485,1 53541U 22101Q   23058.11034507  .00008567  00000-0  55541-3 0  9992,2 53541  53.2177   1.7538 0000887  93.1669 266.9424 15.08858573 29808,6917.824,95.436,540.302,539.075,0.0
53541.0,STARLINK-4485,PAYLOAD,2023-02-27 20:08:07,15.08873728,0.0001011,53.2157,358.4814,92.0938,268.017,0.00050216,7.72e-05,0.0,0 STARLINK-4485,1 53541U 22101Q   23058.83897057  .00007720  00000-0  50216-3 0  9992,2 53541  53.2157 358.4814 0001011  92.0938 268.0170 15.08873728 29914,6917.777,95.435,540.342,538.943,0.0
53541.0,STARLINK-4485,PAYLOAD,2023-02-28 05:40:24,15.08919728,0.0001108,53.2165,356.6973,89.8875,270.2244,0.00207,0.00032882,0.0,0 STARLINK-4485,1 53541U 22101Q   23059.23639325  .00032882  00000-0  20700-2 0  9990,2 53541  53.2165 356.6973 0001108  89.8875 270.2244 15.08919728 29288,6917.637,95.433,540.268,538.735,0.0
53541.0,STARLINK-4485,PAYLOAD,2023-02-28 07:15:47,15.08928663,0.0001295,53.2175,356.4005,96.93,263.184,0.0022274,0.00035426,0.0,0 STARLINK-4485,1 53541U 22101Q   23059.30262878  .00035426  00000-0  22274-2 0  9998,2 53541  53.2175 356.4005 0001295  96.9300 263.1840 15.08928663 29980,6917.609,95.432,540.37,538.579,0.0
53541.0,STARLINK-4485,PAYLOAD,2023-02-28 21:34:17,15.08805249,0.0001878,53.2163,353.7242,116.9746,243.1438,-0.00079234,-0.00012864,0.0,0 STARLINK-4485,1 53541U 22101Q   23059.89880961 -.00012864  00000-0 -79234-3 0  9993,2 53541  53.2163 353.7242 0001878 116.9746 243.1438 15.08805249 30071,6917.987,95.44,541.151,538.552,0.0
53541.0,STARLINK-4485,PAYLOAD,2023-02-28 23:09:40,15.08797877,0.0001767,53.2165,353.4263,129.9389,230.1759,-0.00040057,-6.65e-05,0.0,0 STARLINK-4485,1 53541U 22101Q   23059.96505210 -.00006650  00000-0 -40057-3 0  9999,2 53541  53.2165 353.4263 0001767 129.9389 230.1759 15.08797877 29399,6918.009,95.44,541.097,538.652,0.0
53541.0,STARLINK-4485,PAYLOAD,2023-03-01 07:06:37,15.08806941,0.000117,53.2164,351.9404,71.9504,288.1615,-5.9531e-05,-1.234e-05,0.0,0 STARLINK-4485,1 53541U 22101Q   23060.29626404 -.00001234  00000-0 -59531-4 0  9997,2 53541  53.2164 351.9404 0001170  71.9504 288.1615 15.08806941 29444,6917.981,95.44,540.656,539.037,0.0
53541.0,STARLINK-4485,PAYLOAD,2023-03-02 02:11:15,15.08847243,0.0001285,53.2178,348.374,76.052,284.0615,0.0016574,0.00026193,0.0,0 STARLINK-4485,1 53541U 22101Q   23061.09115329  .00026193  00000-0  16574-2 0  9992,2 53541  53.2178 348.3740 0001285  76.0520 284.0615 15.08847243 29561,6917.858,95.437,540.612,538.834,0.0
53541.0,STARLINK-4485,PAYLOAD,2023-03-02 19:40:30,15.08847256,0.0002138,53.2174,345.0998,76.1794,283.9436,0.00079894,0.00012453,0.0,0 STARLINK-4485,1 53541U 22101Q   23061.81979704  .00012453  00000-0  79894-3 0  9996,2 53541  53.2174 345.0998 0002138  76.1794 283.9436 15.08847256 30361,6917.858,95.437,541.202,538.244,0.0
53541.0,STARLINK-4485,PAYLOAD,2023-03-03 05:12:48,15.08883811,0.0001127,53.2161,343.3173,84.4855,275.6266,0.0029353,0.00046794,0.0,0 STARLINK-4485,1 53541U 22101Q   23062.21722898  .00046794  00000-0  29353-2 0  9990,2 53541  53.2161 343.3173 0001127  84.4855 275.6266 15.08883811 29735,6917.746,95.435,540.391,538.832,0.0
53541.0,STARLINK-4485,PAYLOAD,2023-03-03 17:55:53,15.08877125,0.0001718,53.2163,340.9387,75.879,284.2393,0.0022566,0.00035846,0.0,0 STARLINK-4485,1 53541U 22101Q   23062.74714748  .00035846  00000-0  22566-2 0  9998,2 53541  53.2163 340.9387 0001718  75.8790 284.2393 15.08877125 30500,6917.767,95.435,540.82,538.443,0.0
53541.0,STARLINK-4485,PAYLOAD,2023-03-03 22:42:02,15.0887078,0.0001274,53.2166,340.0458,89.8538,270.26,0.0014541,0.00022949,0.0,0 STARLINK-4485,1 53541U 22101Q   23062.94586358  .00022949  00000-0  14541-2 0  9998,2 53541  53.2166 340.0458 0001274  89.8538 270.2600 15.08870780 29846,6917.786,95.436,540.533,538.77,0.0
53541.0,STARLINK-4485,PAYLOAD,2023-03-04 01:52:48,15.08877022,0.0001395,53.2164,339.4513,70.7975,289.3168,0.0015502,0.00024495,0.0,0 STARLINK-4485,1 53541U 22101Q   23063.07834217  .00024495  00000-0  15502-2 0  9999,2 53541  53.2164 339.4513 0001395  70.7975 289.3168 15.08877022 30552,6917.767,95.435,540.597,538.667,0.0
53541.0,STARLINK-4485,PAYLOAD,2023-03-04 17:46:40,15.08853864,0.0001342,53.216,336.478,103.0592,257.055,0.0020422,0.00032376,0.0,0 STARLINK-4485,1 53541U 22101Q   23063.74074869  .00032376  00000-0  20422-2 0  9996,2 53541  53.2160 336.4780 0001342 103.0592 257.0550 15.08853864 29966,6917.838,95.437,540.631,538.775,0.0
53541.0,STARLINK-4485,PAYLOAD,2023-03-05 00:08:13,15.08845457,0.0001564,53.2166,335.2882,77.7998,282.3169,0.001644,0.00025977,0.0,0 STARLINK-4485,1 53541U 22101Q   23064.00571217  .00025977  00000-0  16440-2 0  9999,2 53541  53.2166 335.2882 0001564  77.7998 282.3169 15.08845457 30008,6917.864,95.437,540.811,538.647,0.0
53541.0,STARLINK-4485,PAYLOAD,2023-03-05 22:23:38,15.08844129,2.46e-05,53.2156,331.1268,356.3994,3.6996,0.0012108,0.00019037,0.0,0 STARLINK-4485,1 53541U 22101Q   23064.93308032  .00019037  00000-0  12108-2 0  9991,2 53541  53.2156 331.1268 0000246 356.3994   3.6996 15.08844129 30140,6917.868,95.437,539.903,539.563,0.0
53541.0,STARLINK-4485,PAYLOAD,2023-03-06 03:09:47,15.08871351,7.95e-05,53.2159,330.2322,81.4392,278.669,0.0018246,0.00028895,0.0,0 STARLINK-4485,1 53541U 22101Q   23065.13179827  .00028895  00000-0  18246-2 0  9993,2 53541  53.2159 330.2322 0000795  81.4392 278.6690 15.08871351 30176,6917.785,95.436,540.2,539.1,0.0
53541.0,STARLINK-4485,PAYLOAD,2023-03-06 17:28:16,15.08840385,0.0001271,53.2151,327.5573,78.8641,281.2494,0.0003493,5.276e-05,0.0,0 STARLINK-4485,1 53541U 22101Q   23065.72796360  .00005276  00000-0  34930-3 0  9992,2 53541  53.2151 327.5573 0001271  78.8641 281.2494 15.08840385 30267,6917.879,95.438,540.623,538.865,0.0
53541.0,STARLINK-4485,PAYLOAD,2023-03-06 23:49:48,15.08851267,0.0001447,53.2144,326.3683,76.6332,283.4821,0.00073287,0.00011398,0.0,0 STARLINK-4485,1 53541U 22101Q   23065.99292228  .00011398  00000-0  73287-3 0  9995,2 53541  53.2144 326.3683 0001447  76.6332 283.4821 15.08851267 30300,6917.846,95.437,540.712,538.71,0.0
53541.0,STARLINK-4485,PAYLOAD,2023-03-07 17:19:03,15.08850021,0.0001595,53.2153,323.0949,81.6245,278.4928,0.0012517,0.00019694,0.0,0 STARLINK-4485,1 53541U 22101Q   23066.72156266  .00019694  00000-0  12517-2 0  9993,2 53541  53.2153 323.0949 0001595  81.6245 278.4928 15.08850021 30413,6917.85,95.437,540.818,538.611,0.0
53541.0,STARLINK-4485,PAYLOAD,2023-03-08 02:51:21,15.08868242,0.0001592,53.2159,321.3107,89.8535,270.264,0.0011191,0.00017581,0.0,0 STARLINK-4485,1 53541U 22101Q   23067.11899664  .00017581  00000-0  11191-2 0  9993,2 53541  53.2159 321.3107 0001592  89.8535 270.2640 15.08868242 31163,6917.794,95.436,540.76,538.558,0.0
53541.0,STARLINK-4485,PAYLOAD,2023-03-08 23:31:22,15.08849292,0.0002397,53.2159,317.4468,85.9696,274.1571,0.0010359,0.00016241,0.0,0 STARLINK-4485,1 53541U 22101Q   23067.98012580  .00016241  00000-0  10359-2 0  9999,2 53541  53.2159 317.4468 0002397  85.9696 274.1571 15.08849292 30606,6917.852,95.437,541.375,538.059,0.0
53541.0,STARLINK-4485,PAYLOAD,2023-03-09 17:00:37,15.08848404,0.0001617,53.2166,314.1765,77.5601,282.5572,0.0008572,0.00013384,0.0,0 STARLINK-4485,1 53541U 22101Q   23068.70876725  .00013384  00000-0  85720-3 0  9999,2 53541  53.2166 314.1765 0001617  77.5601 282.5572 15.08848404 30715,6917.855,95.437,540.838,538.601,0.0
53541.0,STARLINK-4485,PAYLOAD,2023-03-09 21:46:46,15.08860938,0.0001547,53.2161,313.2838,74.7578,285.3585,0.0012673,0.0001995,0.0,0 STARLINK-4485,1 53541U 22101Q   23068.90748455  .00019950  00000-0  12673-2 0  9990,2 53541  53.2161 313.2838 0001547  74.7578 285.3585 15.08860938 31436,6917.816,95.436,540.752,538.611,0.0
53541.0,STARLINK-4485,PAYLOAD,2023-03-09 23:22:09,15.08864384,0.0001073,53.2145,312.9854,75.2503,284.8608,0.0022115,0.00035107,0.0,0 STARLINK-4485,1 53541U 22101Q   23068.97372306  .00035107  00000-0  22115-2 0  9999,2 53541  53.2145 312.9854 0001073  75.2503 284.8608 15.08864384 30753,6917.806,95.436,540.413,538.929,0.0
53541.0,STARLINK-4485,PAYLOAD,2023-03-10 08:54:28,15.08844223,0.000184,53.215,311.2007,86.5216,273.5987,0.00043127,6.583e-05,0.0,0 STARLINK-4485,1 53541U 22101Q   23069.37116554  .00006583  00000-0  43127-3 0  9998,2 53541  53.2150 311.2007 0001840  86.5216 273.5987 15.08844223 30811,6917.867,95.437,541.005,538.46,0.0
53541.0,STARLINK-4485,PAYLOAD,2023-03-10 20:02:10,15.08825457,9.19e-05,53.2151,309.1192,107.4883,252.6209,-0.00037612,-6.266e-05,0.0,0 STARLINK-4485,1 53541U 22101Q   23069.83484699 -.00006266  00000-0 -37612-3 0  9999,2 53541  53.2151 309.1192 0000919 107.4883 252.6209 15.08825457 30882,6917.925,95.438,540.426,539.154,0.0
53541.0,STARLINK-4485,PAYLOAD,2023-03-10 21:37:34,15.08832048,0.0001249,53.2152,308.8219,99.2276,260.8857,2.4655e-05,1.04e-06,0.0,0 STARLINK-4485,1 53541U 22101Q   23069.90108802  .00000104  00000-0  24655-4 0  9993,2 53541  53.2152 308.8219 0001249  99.2276 260.8857 15.08832048 31582,6917.905,95.438,540.634,538.906,0.0
53541.0,STARLINK-4485,PAYLOAD,2023-03-11 00:48:20,15.08829603,0.0001313,53.2151,308.2277,104.9687,255.1451,0.0017638,0.00027886,0.0,0 STARLINK-4485,1 53541U 22101Q   23070.03357159  .00027886  00000-0  17638-2 0  9997,2 53541  53.2151 308.2277 0001313 104.9687 255.1451 15.08829603 30917,6917.912,95.438,540.685,538.869,0.0
53541.0,STARLINK-4485,PAYLOAD,2023-03-12 02:14:30,15.0886167,0.0001232,53.2147,303.4684,102.9814,257.1316,0.0010872,0.00017067,0.0,0 STARLINK-4485,1 53541U 22101Q   23071.09340836  .00017067  00000-0  10872-2 0  9991,2 53541  53.2147 303.4684 0001232 102.9814 257.1316 15.08861670 31071,6917.814,95.436,540.531,538.827,0.0
